CCSDS_OMM_VERS = 2.0
CREATION_DATE  = 
ORIGINATOR     = 

OBJECT_NAME    = SL-4 R/B
OBJECT_ID      = 2014-021B
CENTER_NAME    = EARTH
REF_FRAME      = TEME
TIME_SYSTEM    = UTC
MEAN_ELEMENT_THEORY = SGP/SGP4

EPOCH          = 2026-01-24T21:53:23.940960
MEAN_MOTION    = 15.37803769
ECCENTRICITY   = .00991203
INCLINATION    = 51.6065
RA_OF_ASC_NODE = 190.6107
ARG_OF_PERICENTER = 303.2516
MEAN_ANOMALY   = 55.8999

EPHEMERIS_TYPE = 0
CLASSIFICATION_TYPE = U
NORAD_CAT_ID   = 39679
ELEMENT_SET_NO = 999
REV_AT_EPOCH   = 64953
BSTAR          = .3719306E-3
MEAN_MOTION_DOT = .16197E-3
MEAN_MOTION_DDOT = 0

CCSDS_OMM_VERS = 2.0
CREATION_DATE  = 
ORIGINATOR     = 

OBJECT_NAME    = ALOS-2
OBJECT_ID      = 2014-029A
CENTER_NAME    = EARTH
REF_FRAME      = TEME
TIME_SYSTEM    = UTC
MEAN_ELEMENT_THEORY = SGP/SGP4

EPOCH          = 2026-01-24T23:03:01.651392
MEAN_MOTION    = 14.79466114
ECCENTRICITY   = .00014204
INCLINATION    = 97.9193
RA_OF_ASC_NODE = 124.1851
ARG_OF_PERICENTER = 104.2550
MEAN_ANOMALY   = 255.8819

EPHEMERIS_TYPE = 0
CLASSIFICATION_TYPE = U
NORAD_CAT_ID   = 39766
ELEMENT_SET_NO = 999
REV_AT_EPOCH   = 63040
BSTAR          = .1064751E-3
MEAN_MOTION_DOT = .744E-5
MEAN_MOTION_DDOT = 0

CCSDS_OMM_VERS = 2.0
CREATION_DATE  = 
ORIGINATOR     = 

OBJECT_NAME    = YAOGAN-29
OBJECT_ID      = 2015-069A
CENTER_NAME    = EARTH
REF_FRAME      = TEME
TIME_SYSTEM    = UTC
MEAN_ELEMENT_THEORY = SGP/SGP4

EPOCH          = 2026-01-25T00:06:10.292256
MEAN_MOTION    = 14.82938569
ECCENTRICITY   = .00027163
INCLINATION    = 98.0188
RA_OF_ASC_NODE = 53.3082
ARG_OF_PERICENTER = 109.9260
MEAN_ANOMALY   = 250.2246

EPHEMERIS_TYPE = 0
CLASSIFICATION_TYPE = U
NORAD_CAT_ID   = 41038
ELEMENT_SET_NO = 999
REV_AT_EPOCH   = 54940
BSTAR          = .25858651E-4
MEAN_MOTION_DOT = .156E-5
MEAN_MOTION_DDOT = 0

CCSDS_OMM_VERS = 2.0
CREATION_DATE  = 
ORIGINATOR     = 

OBJECT_NAME    = ASTRO-H (HITOMI)
OBJECT_ID      = 2016-012A
CENTER_NAME    = EARTH
REF_FRAME      = TEME
TIME_SYSTEM    = UTC
MEAN_ELEMENT_THEORY = SGP/SGP4

EPOCH          = 2026-01-24T17:41:26.395584
MEAN_MOTION    = 15.09670642
ECCENTRICITY   = .00099231
INCLINATION    = 30.9996
RA_OF_ASC_NODE = 280.1149
ARG_OF_PERICENTER = 251.7044
MEAN_ANOMALY   = 108.2515

EPHEMERIS_TYPE = 0
CLASSIFICATION_TYPE = U
NORAD_CAT_ID   = 41337
ELEMENT_SET_NO = 999
REV_AT_EPOCH   = 54558
BSTAR          = .24921009E-3
MEAN_MOTION_DOT = .4211E-4
MEAN_MOTION_DDOT = 0

CCSDS_OMM_VERS = 2.0
CREATION_DATE  = 
ORIGINATOR     = 

OBJECT_NAME    = HXMT (HUIYAN)
OBJECT_ID      = 2017-034A
CENTER_NAME    = EARTH
REF_FRAME      = TEME
TIME_SYSTEM    = UTC
MEAN_ELEMENT_THEORY = SGP/SGP4

EPOCH          = 2026-01-24T23:55:33.977856
MEAN_MOTION    = 15.16876295
ECCENTRICITY   = .00329428
INCLINATION    = 43.0137
RA_OF_ASC_NODE = 259.4805
ARG_OF_PERICENTER = 316.4160
MEAN_ANOMALY   = 43.4086

EPHEMERIS_TYPE = 0
CLASSIFICATION_TYPE = U
NORAD_CAT_ID   = 42758
ELEMENT_SET_NO = 999
REV_AT_EPOCH   = 47590
BSTAR          = .4279389E-3
MEAN_MOTION_DOT = .8467E-4
MEAN_MOTION_DDOT = 0

CCSDS_OMM_VERS = 2.0
CREATION_DATE  = 
ORIGINATOR     = 

OBJECT_NAME    = CZ-2C R/B
OBJECT_ID      = 2018-054D
CENTER_NAME    = EARTH
REF_FRAME      = TEME
TIME_SYSTEM    = UTC
MEAN_ELEMENT_THEORY = SGP/SGP4

EPOCH          = 2026-01-24T22:58:50.070144
MEAN_MOTION    = 15.87351468
ECCENTRICITY   = .00126797
INCLINATION    = 35.1305
RA_OF_ASC_NODE = 245.3328
ARG_OF_PERICENTER = 238.1328
MEAN_ANOMALY   = 121.8175

EPHEMERIS_TYPE = 0
CLASSIFICATION_TYPE = U
NORAD_CAT_ID   = 43521
ELEMENT_SET_NO = 999
REV_AT_EPOCH   = 42189
BSTAR          = .91112464E-3
MEAN_MOTION_DOT = .258837E-2
MEAN_MOTION_DDOT = 0

CCSDS_OMM_VERS = 2.0
CREATION_DATE  = 
ORIGINATOR     = 

OBJECT_NAME    = SAOCOM 1A
OBJECT_ID      = 2018-076A
CENTER_NAME    = EARTH
REF_FRAME      = TEME
TIME_SYSTEM    = UTC
MEAN_ELEMENT_THEORY = SGP/SGP4

EPOCH          = 2026-01-24T22:42:26.826048
MEAN_MOTION    = 14.82166817
ECCENTRICITY   = .00015213
INCLINATION    = 97.8859
RA_OF_ASC_NODE = 213.7412
ARG_OF_PERICENTER = 84.6238
MEAN_ANOMALY   = 275.5148

EPHEMERIS_TYPE = 0
CLASSIFICATION_TYPE = U
NORAD_CAT_ID   = 43641
ELEMENT_SET_NO = 999
REV_AT_EPOCH   = 39488
BSTAR          = .16957516E-3
MEAN_MOTION_DOT = .1298E-4
MEAN_MOTION_DDOT = 0

CCSDS_OMM_VERS = 2.0
CREATION_DATE  = 
ORIGINATOR     = 

OBJECT_NAME    = H-2A R/B
OBJECT_ID      = 2018-084L
CENTER_NAME    = EARTH
REF_FRAME      = TEME
TIME_SYSTEM    = UTC
MEAN_ELEMENT_THEORY = SGP/SGP4

EPOCH          = 2026-01-24T11:51:45.074016
MEAN_MOTION    = 15.39290654
ECCENTRICITY   = .00260079
INCLINATION    = 98.8763
RA_OF_ASC_NODE = 232.5022
ARG_OF_PERICENTER = 175.2553
MEAN_ANOMALY   = 184.8940

EPHEMERIS_TYPE = 0
CLASSIFICATION_TYPE = U
NORAD_CAT_ID   = 43682
ELEMENT_SET_NO = 999
REV_AT_EPOCH   = 39897
BSTAR          = .69917769E-3
MEAN_MOTION_DOT = .27535E-3
MEAN_MOTION_DDOT = 0

CCSDS_OMM_VERS = 2.0
CREATION_DATE  = 
ORIGINATOR     = 

OBJECT_NAME    = SAOCOM 1B
OBJECT_ID      = 2020-059A
CENTER_NAME    = EARTH
REF_FRAME      = TEME
TIME_SYSTEM    = UTC
MEAN_ELEMENT_THEORY = SGP/SGP4

EPOCH          = 2026-01-23T11:48:39.089376
MEAN_MOTION    = 14.82165388
ECCENTRICITY   = .00014161
INCLINATION    = 97.8852
RA_OF_ASC_NODE = 211.4066
ARG_OF_PERICENTER = 89.8155
MEAN_ANOMALY   = 270.3220

EPHEMERIS_TYPE = 0
CLASSIFICATION_TYPE = U
NORAD_CAT_ID   = 46265
ELEMENT_SET_NO = 999
REV_AT_EPOCH   = 29205
BSTAR          = .15249695E-3
MEAN_MOTION_DOT = .1162E-4
MEAN_MOTION_DDOT = 0

CCSDS_OMM_VERS = 2.0
CREATION_DATE  = 
ORIGINATOR     = 

OBJECT_NAME    = CSS (TIANHE)
OBJECT_ID      = 2021-035A
CENTER_NAME    = EARTH
REF_FRAME      = TEME
TIME_SYSTEM    = UTC
MEAN_ELEMENT_THEORY = SGP/SGP4

EPOCH          = 2026-01-24T20:40:40.275264
MEAN_MOTION    = 15.61020753
ECCENTRICITY   = .0010029
INCLINATION    = 41.4667
RA_OF_ASC_NODE = 114.5606
ARG_OF_PERICENTER = 354.6584
MEAN_ANOMALY   = 5.4146

EPHEMERIS_TYPE = 0
CLASSIFICATION_TYPE = U
NORAD_CAT_ID   = 48274
ELEMENT_SET_NO = 999
REV_AT_EPOCH   = 27076
BSTAR          = .31240168E-3
MEAN_MOTION_DOT = .26833E-3
MEAN_MOTION_DDOT = 0

CCSDS_OMM_VERS = 2.0
CREATION_DATE  = 
ORIGINATOR     = 

OBJECT_NAME    = COSMOS 2550
OBJECT_ID      = 2021-056A
CENTER_NAME    = EARTH
REF_FRAME      = TEME
TIME_SYSTEM    = UTC
MEAN_ELEMENT_THEORY = SGP/SGP4

EPOCH          = 2026-01-23T09:26:54.726144
MEAN_MOTION    = 15.33842763
ECCENTRICITY   = .00084274
INCLINATION    = 67.1417
RA_OF_ASC_NODE = 177.9415
ARG_OF_PERICENTER = 270.0851
MEAN_ANOMALY   = 89.9337

EPHEMERIS_TYPE = 0
CLASSIFICATION_TYPE = U
NORAD_CAT_ID   = 48865
ELEMENT_SET_NO = 999
REV_AT_EPOCH   = 25651
BSTAR          = -.42471E-7
MEAN_MOTION_DOT = -.193E-5
MEAN_MOTION_DDOT = 0

CCSDS_OMM_VERS = 2.0
CREATION_DATE  = 
ORIGINATOR     = 

OBJECT_NAME    = CZ-2C R/B
OBJECT_ID      = 2022-058K
CENTER_NAME    = EARTH
REF_FRAME      = TEME
TIME_SYSTEM    = UTC
MEAN_ELEMENT_THEORY = SGP/SGP4

EPOCH          = 2026-01-24T19:31:40.833984
MEAN_MOTION    = 15.51155744
ECCENTRICITY   = .00426254
INCLINATION    = 50.1886
RA_OF_ASC_NODE = 183.4611
ARG_OF_PERICENTER = 15.7285
MEAN_ANOMALY   = 344.4998

EPHEMERIS_TYPE = 0
CLASSIFICATION_TYPE = U
NORAD_CAT_ID   = 52794
ELEMENT_SET_NO = 999
REV_AT_EPOCH   = 20331
BSTAR          = .63124422E-3
MEAN_MOTION_DOT = .38735E-3
MEAN_MOTION_DDOT = 0

