SL-4 R/B                
1 39679U 14021B   26024.91208265  .00016197  00000+0  37193-3 0  9998
2 39679  51.6065 190.6107 0099120 303.2516  55.8999 15.37803769649535
ALOS-2                  
1 39766U 14029A   26024.96043578  .00000744  00000+0  10648-3 0  9999
2 39766  97.9193 124.1851 0001420 104.2550 255.8819 14.79466114630401
YAOGAN-29               
1 41038U 15069A   26025.00428579  .00000156  00000+0  25859-4 0  9991
2 41038  98.0188  53.3082 0002716 109.9260 250.2246 14.82938569549404
ASTRO-H (HITOMI)        
1 41337U 16012A   26024.73711106  .00004211  00000+0  24921-3 0  9996
2 41337  30.9996 280.1149 0009923 251.7044 108.2515 15.09670642545586
HXMT (HUIYAN)           
1 42758U 17034A   26024.99692104  .00008467  00000+0  42794-3 0  9998
2 42758  43.0137 259.4805 0032942 316.4160  43.4086 15.16876295475900
CZ-2C R/B               
1 43521U 18054D   26024.95752396  .00258837  00000+0  91112-3 0  9992
2 43521  35.1305 245.3328 0012679 238.1328 121.8175 15.87351468421890
SAOCOM 1A               
1 43641U 18076A   26024.94614382  .00001298  00000+0  16958-3 0  9992
2 43641  97.8859 213.7412 0001521  84.6238 275.5148 14.82166817394884
H-2A R/B                
1 43682U 18084L   26024.49427169  .00027535  00000+0  69918-3 0  9997
2 43682  98.8763 232.5022 0026007 175.2553 184.8940 15.39290654398979
SAOCOM 1B               
1 46265U 20059A   26023.49211909  .00001162  00000+0  15250-3 0  9992
2 46265  97.8852 211.4066 0001416  89.8155 270.3220 14.82165388292052
CSS (TIANHE)            
1 48274U 21035A   26024.86157726  .00026833  00000+0  31240-3 0  9996
2 48274  41.4667 114.5606 0010029 354.6584   5.4146 15.61020753270767
COSMOS 2550             
1 48865U 21056A   26023.39368896 -.00000193  00000+0 -42471-7 0  9999
2 48865  67.1417 177.9415 0008427 270.0851  89.9337 15.33842763256517
CZ-2C R/B               
1 52794U 22058K   26024.81366706  .00038735  00000+0  63124-3 0  9999
2 52794  50.1886 183.4611 0042625  15.7285 344.4998 15.51155744203316
